[{"OBJECT_NAME":"YAOGAN-40 01A","OBJECT_ID":"2023-139A","EPOCH":"2026-03-09T23:20:31.440768","MEAN_MOTION":14.12429316,"ECCENTRICITY":0.00020937,"INCLINATION":85.9907,"RA_OF_ASC_NODE":304.5051,"ARG_OF_PERICENTER":91.437,"MEAN_ANOMALY":268.7053,"EPHEMERIS_TYPE":0,"CLASSIFICATION_TYPE":"U","NORAD_CAT_ID":57830,"ELEMENT_SET_NO":999,"REV_AT_EPOCH":12869,"BSTAR":6.725684e-5,"MEAN_MOTION_DOT":1.43e-6,"MEAN_MOTION_DDOT":0},{"OBJECT_NAME":"SL-3 DEB","OBJECT_ID":"1981-043D","EPOCH":"2026-03-09T23:47:39.165792","MEAN_MOTION":14.08643141,"ECCENTRICITY":0.00457567,"INCLINATION":81.2914,"RA_OF_ASC_NODE":275.7909,"ARG_OF_PERICENTER":147.0356,"MEAN_ANOMALY":332.3974,"EPHEMERIS_TYPE":0,"CLASSIFICATION_TYPE":"U","NORAD_CAT_ID":25255,"ELEMENT_SET_NO":999,"REV_AT_EPOCH":50802,"BSTAR":0.00014354701,"MEAN_MOTION_DOT":2.62e-6,"MEAN_MOTION_DDOT":0}]
